BEIDOU-3S IGSO-1S       
1 40549U 15019A   26161.85690506 -.00000178  00000+0  00000+0 0  9998
2 40549  49.2085 295.5396 0038713 190.8479 173.2945  1.00251826 41013
NAVSTAR 74 (USA 262)    
1 40730U 15033A   26162.23787795 -.00000028  00000+0  00000+0 0  9990
2 40730  53.9871 267.3319 0115044  30.2134 330.4646  2.00556495 79871
BEIDOU-3S M2S           
1 40748U 15037A   26162.41688253 -.00000066  00000+0  00000+0 0  9994
2 40748  54.8770 302.2455 0008113 260.6856  99.2075  1.86232307 74019
BEIDOU-3S M1S           
1 40749U 15037B   26162.08811134 -.00000065  00000+0  00000+0 0  9993
2 40749  54.8731 302.2441 0003569  61.0915 298.9301  1.86254768 74016
GSAT0205 (GALILEO 9)    
1 40889U 15045A   26144.30399159 -.00000014  00000+0  00000+0 0  9994
2 40889  54.9357 222.4171 0006405 263.0112  96.9692  1.67409242 66562
GSAT0206 (GALILEO 10)   
1 40890U 15045B   26160.83170316  .00000048  00000+0  00000+0 0  9990
2 40890  54.9468 221.8077 0001682 339.7025  20.3746  1.70473928 66917
BEIDOU-3S IGSO-2S       
1 40938U 15053A   26161.75511332 -.00000150  00000+0  00000+0 0  9996
2 40938  49.2318 258.8610 0065400 191.8182 175.7790  1.00261032 39292
NAVSTAR 75 (USA 265)    
1 41019U 15062A   26160.29992778 -.00000064  00000+0  00000+0 0  9996
2 41019  56.9540  31.1152 0111654 231.1327 127.9172  2.00566961 77677
GSAT-15                 
1 41028U 15065A   26162.75455308 -.00000241  00000+0  00000+0 0  9992
2 41028   0.0842 266.0495 0004059 160.1923 198.9892  1.00270332 38749
GSAT0209 (GALILEO 12)   
1 41174U 15079A   26162.17289344  .00000012  00000+0  00000+0 0  9995
2 41174  55.8238 101.4269 0005395 341.0365  18.9073  1.70473704 64671
GSAT0208 (GALILEO 11)   
1 41175U 15079B   26160.63344479  .00000022  00000+0  00000+0 0  9997
2 41175  55.8212 101.4660 0004898 340.3551  19.5970  1.70473549 65069
IRNSS-1E                
1 41241U 16003A   26162.64514623 -.00000308  00000+0  00000+0 0  9990
2 41241  33.2228  59.8306 0017950 179.1772   4.8789  1.00267652 38029
NAVSTAR 76 (USA 266)    
1 41328U 16007A   26158.89450904  .00000008  00000+0  00000+0 0  9999
2 41328  55.5185  89.8281 0096231 247.4008 111.5747  2.00552243 75653
COSMOS 2514 [GLONASS-M] 
1 41330U 16008A   26162.65404683 -.00000044  00000+0  00000+0 0  9996
2 41330  65.0252 313.1965 0011071 197.6277 162.3250  2.13102569 80501
BEIDOU-2 IGSO-6         
1 41434U 16021A   26161.63447332 -.00000157  00000+0  00000+0 0  9996
2 41434  60.2161  38.1061 0057088 231.5348 311.0293  1.00260596 37410
IRNSS-1G                
1 41469U 16027A   26162.72007648 -.00000320  00000+0  00000+0 0  9995
2 41469   5.1846  97.5992 0007529 353.6539 197.5967  1.00268818 37129
GSAT0211 (GALILEO 14)   
1 41549U 16030A   26158.99767407  .00000043  00000+0  00000+0 0  9999
2 41549  55.0982 221.9480 0002777 325.1627  34.9006  1.70473969 62511
GSAT0210 (GALILEO 13)   
1 41550U 16030B   26159.84153038  .00000045  00000+0  00000+0 0  9997
2 41550  55.0968 221.9227 0003068 229.8535 130.2012  1.70474105 62529
BEIDOU-2 G7             
1 41586U 16037A   26162.71634980 -.00000337  00000+0  00000+0 0  9998
2 41586   1.7051  69.2714 0007012   3.6089 195.5615  1.00266938  6839
EUTELSAT 117 WEST B     
1 41589U 16038B   26161.95842203  .00000006  00000+0  00000+0 0  9998
2 41589   0.0090 159.3478 0000255 217.2674 110.7257  1.00272883 36605
GSAT0207 (GALILEO 15)   
1 41859U 16069A   26160.11980086  .00000023  00000+0  00000+0 0  9990
2 41859  55.4940 101.3095 0005423 327.7880  32.1516  1.70473627 59261
GSAT0212 (GALILEO 16)   
1 41860U 16069B   26161.14639969  .00000018  00000+0  00000+0 0  9991
2 41860  55.4922 101.2762 0004678 355.7318   4.2331  1.70473868 59533
GSAT0213 (GALILEO 17)   
1 41861U 16069C   26162.10022564  .00000012  00000+0  00000+0 0  9990
2 41861  55.4950 101.2576 0005071 311.9600  47.9612  1.70474163 59416
GSAT0214 (GALILEO 18)   
1 41862U 16069D   26159.90009922  .00000024  00000+0  00000+0 0  9991
2 41862  55.4924 101.3112 0004328 318.2384  41.7019  1.70473875 59500
SES-15                  
1 42709U 17026A   26159.53201694  .00000076  00000+0  00000+0 0  9992
2 42709   0.0197 332.0701 0000516  88.0806 259.1449  1.00270105  7343
QZS-2 (MICHIBIKI-2)     
1 42738U 17028A   26160.53939596 -.00000147  00000+0  00000+0 0  9997
2 42738  39.4388 243.2674 0760581 269.1776  81.0235  1.00285994  7547
QZS-3 (MICHIBIKI-3)     
1 42917U 17048A   26162.71964316  .00000000  00000+0  00000+0 0  9995
2 42917   0.0267 190.4960 0002425 259.5255 196.0941  1.00265599 32209
COSMOS 2522 [GLONASS-M] 
1 42939U 17055A   26161.08408941  .00000114  00000+0  00000+0 0  9999
2 42939  64.0782 192.1263 0010679 240.0455 119.9210  2.13102025 67825
QZS-4 (MICHIBIKI-4)     
1 42965U 17062A   26162.36373251 -.00000318  00000+0  00000+0 0  9990
2 42965  40.1116 343.5575 0745200 271.6390 272.9173  1.00252284 31749
BEIDOU-3 M1             
1 43001U 17069A   26161.15259502 -.00000050  00000+0  00000+0 0  9990
2 43001  56.6854  63.3171 0010600 324.5878  35.3649  1.86231422 58472
BEIDOU-3 M2             
1 43002U 17069B   26162.16523728 -.00000053  00000+0  00000+0 0  9990
2 43002  56.6856  63.3198 0009248 349.7918  10.2118  1.86230927 58487
